CSS (TIANHE)            
1 48274U 21035A   23326.49448275  .00042564  00000+0  46942-3 0  9993
2 48274  41.4709 272.0080 0006085 202.7321 157.3250 15.62285276146588
